<?xml version="1.0" encoding="UTF-8"?>
<ndm xmlns:xsi="http://www.w3.org/2001/XMLSchema-instance" xsi:noNamespaceSchemaLocation="https://sanaregistry.org/r/ndmxml_unqualified/ndmxml-2.0.0-master-2.0.xsd">
<omm id="CCSDS_OMM_VERS" version="2.0">
<header><CREATION_DATE/><ORIGINATOR/></header><body><segment><metadata><OBJECT_NAME>ONEWEB-0429</OBJECT_NAME><OBJECT_ID>2021-132AH</OBJECT_ID><CENTER_NAME>EARTH</CENTER_NAME><REF_FRAME>TEME</REF_FRAME><TIME_SYSTEM>UTC</TIME_SYSTEM><MEAN_ELEMENT_THEORY>SGP4</MEAN_ELEMENT_THEORY></metadata><data><meanElements><EPOCH>2024-07-20T11:43:13.400256</EPOCH><MEAN_MOTION>13.18684761</MEAN_MOTION><ECCENTRICITY>.0002001</ECCENTRICITY><INCLINATION>87.9148</INCLINATION><RA_OF_ASC_NODE>114.1583</RA_OF_ASC_NODE><ARG_OF_PERICENTER>71.4765</ARG_OF_PERICENTER><MEAN_ANOMALY>288.6584</MEAN_ANOMALY></meanElements><tleParameters><EPHEMERIS_TYPE>0</EPHEMERIS_TYPE><CLASSIFICATION_TYPE>U</CLASSIFICATION_TYPE><NORAD_CAT_ID>50500</NORAD_CAT_ID><ELEMENT_SET_NO>999</ELEMENT_SET_NO><REV_AT_EPOCH>12976</REV_AT_EPOCH><BSTAR>-.25044E-4</BSTAR><MEAN_MOTION_DOT>.3E-7</MEAN_MOTION_DOT><MEAN_MOTION_DDOT>0</MEAN_MOTION_DDOT></tleParameters></data></segment></body></omm>
<omm id="CCSDS_OMM_VERS" version="2.0">
<header><CREATION_DATE/><ORIGINATOR/></header><body><segment><metadata><OBJECT_NAME>ONEWEB-0430</OBJECT_NAME><OBJECT_ID>2021-132AJ</OBJECT_ID><CENTER_NAME>EARTH</CENTER_NAME><REF_FRAME>TEME</REF_FRAME><TIME_SYSTEM>UTC</TIME_SYSTEM><MEAN_ELEMENT_THEORY>SGP4</MEAN_ELEMENT_THEORY></metadata><data><meanElements><EPOCH>2024-07-20T07:48:44.907264</EPOCH><MEAN_MOTION>13.18685796</MEAN_MOTION><ECCENTRICITY>.0001554</ECCENTRICITY><INCLINATION>87.9147</INCLINATION><RA_OF_ASC_NODE>114.1942</RA_OF_ASC_NODE><ARG_OF_PERICENTER>71.6610</ARG_OF_PERICENTER><MEAN_ANOMALY>288.4692</MEAN_ANOMALY></meanElements><tleParameters><EPHEMERIS_TYPE>0</EPHEMERIS_TYPE><CLASSIFICATION_TYPE>U</CLASSIFICATION_TYPE><NORAD_CAT_ID>50501</NORAD_CAT_ID><ELEMENT_SET_NO>999</ELEMENT_SET_NO><REV_AT_EPOCH>12978</REV_AT_EPOCH><BSTAR>.17577E-3</BSTAR><MEAN_MOTION_DOT>.82E-6</MEAN_MOTION_DOT><MEAN_MOTION_DDOT>0</MEAN_MOTION_DDOT></tleParameters></data></segment></body></omm>
<omm id="CCSDS_OMM_VERS" version="2.0">
<header><CREATION_DATE/><ORIGINATOR/></header><body><segment><metadata><OBJECT_NAME>ONEWEB-0440</OBJECT_NAME><OBJECT_ID>2021-132AL</OBJECT_ID><CENTER_NAME>EARTH</CENTER_NAME><REF_FRAME>TEME</REF_FRAME><TIME_SYSTEM>UTC</TIME_SYSTEM><MEAN_ELEMENT_THEORY>SGP4</MEAN_ELEMENT_THEORY></metadata><data><meanElements><EPOCH>2024-07-20T11:54:35.840160</EPOCH><MEAN_MOTION>13.18684489</MEAN_MOTION><ECCENTRICITY>.0002454</ECCENTRICITY><INCLINATION>87.9148</INCLINATION><RA_OF_ASC_NODE>114.1424</RA_OF_ASC_NODE><ARG_OF_PERICENTER>69.3004</ARG_OF_PERICENTER><MEAN_ANOMALY>290.8391</MEAN_ANOMALY></meanElements><tleParameters><EPHEMERIS_TYPE>0</EPHEMERIS_TYPE><CLASSIFICATION_TYPE>U</CLASSIFICATION_TYPE><NORAD_CAT_ID>50503</NORAD_CAT_ID><ELEMENT_SET_NO>999</ELEMENT_SET_NO><REV_AT_EPOCH>12975</REV_AT_EPOCH><BSTAR>.1471E-3</BSTAR><MEAN_MOTION_DOT>.71E-6</MEAN_MOTION_DOT><MEAN_MOTION_DDOT>0</MEAN_MOTION_DDOT></tleParameters></data></segment></body></omm>
<omm id="CCSDS_OMM_VERS" version="2.0">
<header><CREATION_DATE/><ORIGINATOR/></header><body><segment><metadata><OBJECT_NAME>ONEWEB-0450</OBJECT_NAME><OBJECT_ID>2021-132AM</OBJECT_ID><CENTER_NAME>EARTH</CENTER_NAME><REF_FRAME>TEME</REF_FRAME><TIME_SYSTEM>UTC</TIME_SYSTEM><MEAN_ELEMENT_THEORY>SGP4</MEAN_ELEMENT_THEORY></metadata><data><meanElements><EPOCH>2024-07-20T11:45:41.160672</EPOCH><MEAN_MOTION>13.18684940</MEAN_MOTION><ECCENTRICITY>.0001794</ECCENTRICITY><INCLINATION>87.9148</INCLINATION><RA_OF_ASC_NODE>114.1720</RA_OF_ASC_NODE><ARG_OF_PERICENTER>65.7075</ARG_OF_PERICENTER><MEAN_ANOMALY>294.4244</MEAN_ANOMALY></meanElements><tleParameters><EPHEMERIS_TYPE>0</EPHEMERIS_TYPE><CLASSIFICATION_TYPE>U</CLASSIFICATION_TYPE><NORAD_CAT_ID>50504</NORAD_CAT_ID><ELEMENT_SET_NO>999</ELEMENT_SET_NO><REV_AT_EPOCH>12978</REV_AT_EPOCH><BSTAR>.24233E-3</BSTAR><MEAN_MOTION_DOT>.108E-5</MEAN_MOTION_DOT><MEAN_MOTION_DDOT>0</MEAN_MOTION_DDOT></tleParameters></data></segment></body></omm>
<omm id="CCSDS_OMM_VERS" version="2.0">
<header><CREATION_DATE/><ORIGINATOR/></header><body><segment><metadata><OBJECT_NAME>ONEWEB-0410</OBJECT_NAME><OBJECT_ID>2022-012A</OBJECT_ID><CENTER_NAME>EARTH</CENTER_NAME><REF_FRAME>TEME</REF_FRAME><TIME_SYSTEM>UTC</TIME_SYSTEM><MEAN_ELEMENT_THEORY>SGP4</MEAN_ELEMENT_THEORY></metadata><data><meanElements><EPOCH>2024-07-20T13:53:24.844128</EPOCH><MEAN_MOTION>13.17648536</MEAN_MOTION><ECCENTRICITY>.0003166</ECCENTRICITY><INCLINATION>87.9188</INCLINATION><RA_OF_ASC_NODE>144.5538</RA_OF_ASC_NODE><ARG_OF_PERICENTER>104.8190</ARG_OF_PERICENTER><MEAN_ANOMALY>255.3292</MEAN_ANOMALY></meanElements><tleParameters><EPHEMERIS_TYPE>0</EPHEMERIS_TYPE><CLASSIFICATION_TYPE>U</CLASSIFICATION_TYPE><NORAD_CAT_ID>51622</NORAD_CAT_ID><ELEMENT_SET_NO>999</ELEMENT_SET_NO><REV_AT_EPOCH>12196</REV_AT_EPOCH><BSTAR>-.1558E-3</BSTAR><MEAN_MOTION_DOT>-.48E-6</MEAN_MOTION_DOT><MEAN_MOTION_DDOT>0</MEAN_MOTION_DDOT></tleParameters></data></segment></body></omm>
<omm id="CCSDS_OMM_VERS" version="2.0">
<header><CREATION_DATE/><ORIGINATOR/></header><body><segment><metadata><OBJECT_NAME>ONEWEB-0411</OBJECT_NAME><OBJECT_ID>2022-012B</OBJECT_ID><CENTER_NAME>EARTH</CENTER_NAME><REF_FRAME>TEME</REF_FRAME><TIME_SYSTEM>UTC</TIME_SYSTEM><MEAN_ELEMENT_THEORY>SGP4</MEAN_ELEMENT_THEORY></metadata><data><meanElements><EPOCH>2024-07-20T09:41:04.885728</EPOCH><MEAN_MOTION>13.10370219</MEAN_MOTION><ECCENTRICITY>.0001341</ECCENTRICITY><INCLINATION>87.8954</INCLINATION><RA_OF_ASC_NODE>174.8323</RA_OF_ASC_NODE><ARG_OF_PERICENTER>83.9716</ARG_OF_PERICENTER><MEAN_ANOMALY>276.1564</MEAN_ANOMALY></meanElements><tleParameters><EPHEMERIS_TYPE>0</EPHEMERIS_TYPE><CLASSIFICATION_TYPE>U</CLASSIFICATION_TYPE><NORAD_CAT_ID>51623</NORAD_CAT_ID><ELEMENT_SET_NO>999</ELEMENT_SET_NO><REV_AT_EPOCH>11803</REV_AT_EPOCH><BSTAR>-.97192E-3</BSTAR><MEAN_MOTION_DOT>-.327E-5</MEAN_MOTION_DOT><MEAN_MOTION_DDOT>0</MEAN_MOTION_DDOT></tleParameters></data></segment></body></omm>

</ndm>
