ONEWEB-0429             
1 50500U 21132AH  24202.48834954  .00000003  00000+0 -25044-4 0  9996
2 50500  87.9148 114.1583 0002001  71.4765 288.6584 13.18684761129766
ONEWEB-0430             
1 50501U 21132AJ  24202.32551976  .00000082  00000+0  17577-3 0  9997
2 50501  87.9147 114.1942 0001554  71.6610 288.4692 13.18685796129787
ONEWEB-0440             
1 50503U 21132AL  24202.49624815  .00000071  00000+0  14710-3 0  9994
2 50503  87.9148 114.1424 0002454  69.3004 290.8391 13.18684489129754
ONEWEB-0450             
1 50504U 21132AM  24202.49005973  .00000108  00000+0  24233-3 0  9995
2 50504  87.9148 114.1720 0001794  65.7075 294.4244 13.18684940129780
ONEWEB-0410             
1 51622U 22012A   24202.57875977 -.00000048  00000+0 -15580-3 0  9993
2 51622  87.9188 144.5538 0003166 104.8190 255.3292 13.17648536121969
ONEWEB-0411             
1 51623U 22012B   24202.40352877 -.00000327  00000+0 -97192-3 0  9994
2 51623  87.8954 174.8323 0001341  83.9716 276.1564 13.10370219118032
